NORAD_CAT_ID,OBJECT_NAME,OBJECT_TYPE,EPOCH,MEAN_MOTION,ECCENTRICITY,INCLINATION,RA_OF_ASC_NODE,ARG_OF_PERICENTER,MEAN_ANOMALY,BSTAR,MEAN_MOTION_DOT,MEAN_MOTION_DDOT,TLE_LINE0,TLE_LINE1,TLE_LINE2,SEMIMAJOR_AXIS,PERIOD,APOGEE,PERIGEE,DECAYED
53733.0,STARLINK-4574,PAYLOAD,2024-05-13 23:49:02,15.08855699,0.0001098,53.2173,358.2924,103.9347,256.1768,0.0058311,0.00093791,0.0,0 STARLINK-4574,1 53733U 22107AK  24134.99239578  .00093791  00000-0  58311-2 0  9998,2 53733  53.2173 358.2924 0001098 103.9347 256.1768 15.08855699 93601,6917.832,95.437,540.457,538.938,0.0
53733.0,STARLINK-4574,PAYLOAD,2024-05-14 22:04:26,15.08888122,0.0001599,53.2175,354.1285,121.1793,238.9356,0.0035131,0.00056143,0.0,0 STARLINK-4574,1 53733U 22107AK  24135.91975292  .00056143  00000-0  35131-2 0  9996,2 53733  53.2175 354.1285 0001599 121.1793 238.9356 15.08888122 94374,6917.733,95.435,540.704,538.492,0.0
53733.0,STARLINK-4574,PAYLOAD,2024-05-14 23:39:49,15.08872973,0.0001679,53.2172,353.8321,117.8695,242.2468,0.0021175,0.00033604,0.0,0 STARLINK-4574,1 53733U 22107AK  24135.98599183  .00033604  00000-0  21175-2 0  9994,2 53733  53.2172 353.8321 0001679 117.8695 242.2468 15.08872973 93750,6917.78,95.435,540.806,538.483,0.0
53733.0,STARLINK-4574,PAYLOAD,2024-05-15 07:36:45,15.08864849,0.000194,53.2179,352.3441,105.229,254.8917,0.0014907,0.00023532,0.0,0 STARLINK-4574,1 53733U 22107AK  24136.31718935  .00023532  00000-0  14907-2 0  9994,2 53733  53.2179 352.3441 0001940 105.2290 254.8917 15.08864849 93804,6917.804,95.436,541.011,538.327,0.0
53733.0,STARLINK-4574,PAYLOAD,2024-05-15 13:58:17,15.08882582,0.0002537,53.215,351.1572,98.3655,261.7625,0.0018563,0.00029414,0.0,0 STARLINK-4574,1 53733U 22107AK  24136.58214715  .00029414  00000-0  18563-2 0  9997,2 53733  53.2150 351.1572 0002537  98.3655 261.7625 15.08882582 94476,6917.75,95.435,541.37,537.86,0.0
53733.0,STARLINK-4574,PAYLOAD,2024-05-15 20:19:49,15.08877214,0.0001541,53.2171,349.9672,114.2085,245.9068,0.0019136,0.00030329,0.0,0 STARLINK-4574,1 53733U 22107AK  24136.84710117  .00030329  00000-0  19136-2 0  9997,2 53733  53.2171 349.9672 0001541 114.2085 245.9068 15.08877214 93889,6917.767,95.435,540.698,538.566,0.0
53733.0,STARLINK-4574,PAYLOAD,2024-05-15 21:55:12,15.08882009,0.0001521,53.2176,349.6701,112.6399,247.4754,0.0021971,0.00034893,0.0,0 STARLINK-4574,1 53733U 22107AK  24136.91333951  .00034893  00000-0  21971-2 0  9992,2 53733  53.2176 349.6701 0001521 112.6399 247.4754 15.08882009 94521,6917.752,95.435,540.669,538.565,0.0
53733.0,STARLINK-4574,PAYLOAD,2024-05-16 07:27:31,15.08850275,0.0001149,53.2181,347.884,119.369,240.7417,-0.00042155,-6.992e-05,0.0,0 STARLINK-4574,1 53733U 22107AK  24137.31077557 -.00006992  00000-0 -42155-3 0  9993,2 53733  53.2181 347.8840 0001149 119.3690 240.7417 15.08850275 93953,6917.849,95.437,540.509,538.919,0.0
53733.0,STARLINK-4574,PAYLOAD,2024-05-16 20:10:36,15.08853511,9.01e-05,53.2184,345.5044,121.5707,238.5373,0.001417,0.00022344,0.0,0 STARLINK-4574,1 53733U 22107AK  24137.84069512  .00022344  00000-0  14170-2 0  9995,2 53733  53.2184 345.5044 0000901 121.5707 238.5373 15.08853511 94667,6917.839,95.437,540.327,539.081,0.0
53733.0,STARLINK-4574,PAYLOAD,2024-05-16 23:21:22,15.08873006,0.0001249,53.2172,344.9111,97.6189,262.4945,0.0024565,0.00039059,0.0,0 STARLINK-4574,1 53733U 22107AK  24137.97317290  .00039059  00000-0  24565-2 0  9998,2 53733  53.2172 344.9111 0001249  97.6189 262.4945 15.08873006 94050,6917.78,95.435,540.509,538.78,0.0
53733.0,STARLINK-4574,PAYLOAD,2024-05-17 13:39:51,15.08838711,0.0003625,53.2174,342.2351,95.0854,265.0552,0.0021712,0.00034438,0.0,0 STARLINK-4574,1 53733U 22107AK  24138.56934816  .00034438  00000-0  21712-2 0  9990,2 53733  53.2174 342.2351 0003625  95.0854 265.0552 15.08838711 94147,6917.884,95.438,542.257,537.242,0.0
53733.0,STARLINK-4574,PAYLOAD,2024-05-17 20:01:24,15.08811941,0.0001316,53.2163,341.0447,78.2761,281.8378,0.00099626,0.00015591,0.0,0 STARLINK-4574,1 53733U 22107AK  24138.83431241  .00015591  00000-0  99626-3 0  9993,2 53733  53.2163 341.0447 0001316  78.2761 281.8378 15.08811941 94185,6917.966,95.439,540.742,538.921,0.0
53733.0,STARLINK-4574,PAYLOAD,2024-05-18 19:52:10,15.08914491,0.0001482,53.2177,336.5856,74.1841,285.9315,0.0029546,0.00047146,0.0,0 STARLINK-4574,1 53733U 22107AK  24139.82789615  .00047146  00000-0  29546-2 0  9998,2 53733  53.2177 336.5856 0001482  74.1841 285.9315 15.08914491 94338,6917.653,95.433,540.543,538.493,0.0
53733.0,STARLINK-4574,PAYLOAD,2024-05-18 23:02:55,15.08928264,0.0001543,53.218,335.9909,75.1335,284.9828,0.0028856,0.00046048,0.0,0 STARLINK-4574,1 53733U 22107AK  24139.96036825  .00046048  00000-0  28856-2 0  9994,2 53733  53.2180 335.9909 0001543  75.1335 284.9828 15.08928264 94983,6917.611,95.432,540.543,538.408,0.0
53733.0,STARLINK-4574,PAYLOAD,2024-05-19 19:42:57,15.0883599,0.0001122,53.2179,332.1255,97.3655,262.7465,0.0022247,0.00035292,0.0,0 STARLINK-4574,1 53733U 22107AK  24140.82150420  .00035292  00000-0  22247-2 0  9996,2 53733  53.2179 332.1255 0001122  97.3655 262.7465 15.08835990 94487,6917.893,95.438,540.534,538.981,0.0
53733.0,STARLINK-4574,PAYLOAD,2024-05-20 13:12:11,15.08892237,0.0001041,53.2176,328.8543,96.212,263.899,0.0023264,0.00036984,0.0,0 STARLINK-4574,1 53733U 22107AK  24141.55013162  .00036984  00000-0  23264-2 0  9997,2 53733  53.2176 328.8543 0001041  96.2120 263.8990 15.08892237 95226,6917.721,95.434,540.306,538.866,0.0
53733.0,STARLINK-4574,PAYLOAD,2024-05-20 19:33:44,15.08805756,0.0001065,53.2179,327.6635,87.0157,273.0957,0.00034033,5.128e-05,0.0,0 STARLINK-4574,1 53733U 22107AK  24141.81509947  .00005128  00000-0  34033-3 0  9990,2 53733  53.2179 327.6635 0001065  87.0157 273.0957 15.08805756 94632,6917.985,95.44,540.587,539.113,0.0
53733.0,STARLINK-4574,PAYLOAD,2024-05-21 01:55:17,15.08817886,9.38e-05,53.2178,326.4742,86.4331,273.6768,0.0004313,6.579e-05,0.0,0 STARLINK-4574,1 53733U 22107AK  24142.08006267  .00006579  00000-0  43130-3 0  9996,2 53733  53.2178 326.4742 0000938  86.4331 273.6768 15.08817886 94679,6917.948,95.439,540.462,539.164,0.0
53733.0,STARLINK-4574,PAYLOAD,2024-05-21 20:59:55,15.08860368,9.79e-05,53.2175,322.9087,76.9675,283.1427,0.0018524,0.00029332,0.0,0 STARLINK-4574,1 53733U 22107AK  24142.87494649  .00029332  00000-0  18524-2 0  9998,2 53733  53.2175 322.9087 0000979  76.9675 283.1427 15.08860368 94793,6917.818,95.436,540.36,539.006,0.0
53733.0,STARLINK-4574,PAYLOAD,2024-05-22 11:18:23,15.0885217,0.0001537,53.2174,320.2316,136.8781,223.2332,0.00102,0.00015988,0.0,0 STARLINK-4574,1 53733U 22107AK  24143.47110677  .00015988  00000-0  10200-2 0  9996,2 53733  53.2174 320.2316 0001537 136.8781 223.2332 15.08852170 94885,6917.843,95.437,540.771,538.645,0.0
53733.0,STARLINK-4574,PAYLOAD,2024-05-22 19:15:18,15.0885032,0.0002195,53.217,318.744,172.1948,187.9079,0.0010643,0.00016696,0.0,0 STARLINK-4574,1 53733U 22107AK  24143.80230269  .00016696  00000-0  10643-2 0  9991,2 53733  53.2170 318.7440 0002195 172.1948 187.9079 15.08850320 95565,6917.849,95.437,541.232,538.195,0.0
53733.0,STARLINK-4574,PAYLOAD,2024-05-23 11:09:11,15.08841657,0.0001773,53.2165,315.7746,55.9478,304.1682,0.00054646,8.42e-05,0.0,0 STARLINK-4574,1 53733U 22107AK  24144.46471423  .00008420  00000-0  54646-3 0  9991,2 53733  53.2165 315.7746 0001773  55.9478 304.1682 15.08841657 95030,6917.875,95.437,540.967,538.514,0.0
53733.0,STARLINK-4574,PAYLOAD,2024-05-23 19:06:06,15.08845204,0.0001097,53.2172,314.2826,90.6802,269.4316,0.00053051,8.166e-05,0.0,0 STARLINK-4574,1 53733U 22107AK  24144.79591123  .00008166  00000-0  53051-3 0  9993,2 53733  53.2172 314.2826 0001097  90.6802 269.4316 15.08845204 95711,6917.864,95.437,540.488,538.971,0.0
53733.0,STARLINK-4574,PAYLOAD,2024-05-24 10:59:58,15.08849917,0.0001569,53.2172,311.3153,63.5557,296.5596,0.00040298,6.133e-05,0.0,0 STARLINK-4574,1 53733U 22107AK  24145.45831187  .00006133  00000-0  40298-3 0  9995,2 53733  53.2172 311.3153 0001569  63.5557 296.5596 15.08849917 95189,6917.85,95.437,540.8,538.63,0.0
53733.0,STARLINK-4574,PAYLOAD,2024-05-24 17:21:30,15.0885025,0.0001304,53.2175,310.1231,73.2869,286.8266,0.00034778,5.253e-05,0.0,0 STARLINK-4574,1 53733U 22107AK  24145.72326968  .00005253  00000-0  34778-3 0  9999,2 53733  53.2175 310.1231 0001304  73.2869 286.8266 15.08850250 95859,6917.849,95.437,540.616,538.812,0.0
53733.0,STARLINK-4574,PAYLOAD,2024-05-25 10:50:45,15.08837181,0.0001064,53.217,306.8473,91.3672,268.7442,-2.2317e-06,-3.23e-06,0.0,0 STARLINK-4574,1 53733U 22107AK  24146.45191308 -.00000323  00000-0 -22317-5 0  9991,2 53733  53.2170 306.8473 0001064  91.3672 268.7442 15.08837181 95336,6917.889,95.438,540.49,539.018,0.0
53733.0,STARLINK-4574,PAYLOAD,2024-05-25 14:01:31,15.0883278,0.000114,53.2175,306.2543,54.6947,305.4152,-3.1547e-05,-7.9e-06,0.0,0 STARLINK-4574,1 53733U 22107AK  24146.58439736 -.00000790  00000-0 -31547-4 0  9997,2 53733  53.2175 306.2543 0001140  54.6947 305.4152 15.08832780 95983,6917.902,95.438,540.556,538.979,0.0
53733.0,STARLINK-4574,PAYLOAD,2024-05-26 13:52:18,15.08846478,9.99e-05,53.2174,301.7933,64.0761,296.0334,8.431e-05,1.055e-05,0.0,0 STARLINK-4574,1 53733U 22107AK  24147.57799395  .00001055  00000-0  84310-4 0  9996,2 53733  53.2174 301.7933 0000999  64.0761 296.0334 15.08846478 96139,6917.861,95.437,540.417,539.034,0.0
53733.0,STARLINK-4574,PAYLOAD,2024-05-26 17:03:04,15.08849231,0.0001064,53.2173,301.2006,67.1741,292.9363,0.00016619,2.359e-05,0.0,0 STARLINK-4574,1 53733U 22107AK  24147.71047228  .00002359  00000-0  16619-3 0  9997,2 53733  53.2173 301.2006 0001064  67.1741 292.9363 15.08849231 95529,6917.852,95.437,540.453,538.981,0.0
53733.0,STARLINK-4574,PAYLOAD,2024-05-27 13:43:05,15.08849331,0.0001104,53.2179,297.334,64.6576,295.453,0.00029654,4.436e-05,0.0,0 STARLINK-4574,1 53733U 22107AK  24148.57158953  .00004436  00000-0  29654-3 0  9991,2 53733  53.2179 297.3340 0001104  64.6576 295.4530 15.08849331 96283,6917.852,95.437,540.481,538.953,0.0
